MALLIGYONG-1            
1 58400U 23179A   24270.78810987  .00009071  00000+0  41286-3 0  9992
2 58400  97.3864 155.8806 0010404  80.3254 279.9157 15.20878605 47171
